*******************************************************************************
Ephemeris / WWW_USER Mon Mar 24 08:26:58 2025 Pasadena, USA      / Horizons    
*******************************************************************************
Target body name: (2018 VS8)                      {source: JPL#8}
Center body name: Earth (399)                     {source: DE441}
Center-site name: Mauna Kea
*******************************************************************************
Start time      : A.D. 2018-Dec-24 03:59:00.0000 UT      
Stop  time      : A.D. 2018-Dec-24 16:43:00.0000 UT      
Step-size       : 1 minutes
*******************************************************************************
Target pole/equ : undefined
Target radii    : undefined                                                    
Center geodetic : 204.5278, 19.8260847, 4.21024   {E-lon(deg),Lat(deg),Alt(km)}
Center cylindric: 204.5278, 6006.35451, 2151.0229 {E-lon(deg),Dxy(km),Dz(km)}
Center pole/equ : ITRF93                          {East-longitude positive}
Center radii    : 6378.137, 6378.137, 6356.752 km {Equator_a, b, pole_c}       
Target primary  : Sun
Vis. interferer : MOON (R_eq= 1737.400) km        {source: DE441}
Rel. light bend : Sun                             {source: DE441}
Rel. lght bnd GM: 1.3271E+11 km^3/s^2                                          
Small-body perts: Yes                             {source: SB441-N16}
Atmos refraction: NO (AIRLESS)
RA format       : HMS
Time format     : CAL 
Calendar mode   : Mixed Julian/Gregorian
RTS-only print  : NO       
EOP file        : eop.250321.p250617                                           
EOP coverage    : DATA-BASED 1962-JAN-20 TO 2025-MAR-21. PREDICTS-> 2025-JUN-16
Units conversion: 1 au= 149597870.700 km, c= 299792.458 km/s, 1 day= 86400.0 s 
Table cut-offs 1: Elevation (-90.0deg=NO ),Airmass (>38.000=NO), Daylight (YES)
Table cut-offs 2: Solar elongation (  0.0,180.0=NO ),Local Hour Angle( 0.0=NO )
Table cut-offs 3: RA/DEC angular rate (     0.0=NO )                           
*******************************************************************************
Initial IAU76/J2000 heliocentric ecliptic osculating elements (au, days, deg.):
  EPOCH=  2458433.5 ! 2018-Nov-11.00 (TDB)         Residual RMS= .33953        
   EC= .5263784885368822   QR= .9373233613851428   TP= 2458465.1575556668      
   OM= 53.89076972236643   W=  33.71683445616237   IN= 3.430463171034721       
  Equivalent ICRF heliocentric cartesian coordinates (au, au/d):
   X= 6.888560011548344E-01  Y= 6.928655939663307E-01  Z= 2.929974091538562E-01
  VX=-1.813811938800288E-02 VY= 8.693003909227039E-03 VZ= 5.111678677431928E-03
Asteroid physical parameters (km, seconds, rotational period in hours):        
   GM= n.a.                RAD= n.a.               ROTPER= n.a.                
   H= 27.2                 G= .150                 B-V= n.a.                   
                           ALBEDO= n.a.            STYP= n.a.                  
*******************************************************************************
 Date__(UT)__HR:MN     R.A._________(ICRF)_________DEC
******************************************************
$$SOE
 2018-Dec-24 03:59 C   13 30 23.482966 +04 20 40.89196
 2018-Dec-24 04:00 C   13 30 23.532394 +04 20 40.55815
 2018-Dec-24 04:01 C   13 30 23.581846 +04 20 40.22439
 2018-Dec-24 04:02 C   13 30 23.631322 +04 20 39.89069
 2018-Dec-24 04:03 C   13 30 23.680820 +04 20 39.55705
 2018-Dec-24 04:04 C   13 30 23.730341 +04 20 39.22346
 2018-Dec-24 04:05 C   13 30 23.779884 +04 20 38.88994
 2018-Dec-24 04:06 C   13 30 23.829450 +04 20 38.55647
 2018-Dec-24 04:07 C   13 30 23.879038 +04 20 38.22306
 2018-Dec-24 04:08 C   13 30 23.928648 +04 20 37.88972
 2018-Dec-24 04:09 C   13 30 23.978279 +04 20 37.55643
 2018-Dec-24 04:10 C   13 30 24.027932 +04 20 37.22319
 2018-Dec-24 04:11 C   13 30 24.077606 +04 20 36.89002
 2018-Dec-24 04:12 C   13 30 24.127301 +04 20 36.55691
 2018-Dec-24 04:13 C   13 30 24.177017 +04 20 36.22385
 2018-Dec-24 04:14 N   13 30 24.226754 +04 20 35.89086
 2018-Dec-24 04:15 N   13 30 24.276511 +04 20 35.55792
 2018-Dec-24 04:16 N   13 30 24.326288 +04 20 35.22505
 2018-Dec-24 04:17 N   13 30 24.376085 +04 20 34.89223
 2018-Dec-24 04:18 N   13 30 24.425901 +04 20 34.55948
 2018-Dec-24 04:19 N   13 30 24.475737 +04 20 34.22678
 2018-Dec-24 04:20 N   13 30 24.525592 +04 20 33.89414
 2018-Dec-24 04:21 N   13 30 24.575466 +04 20 33.56157
 2018-Dec-24 04:22 N   13 30 24.625359 +04 20 33.22905
 2018-Dec-24 04:23 N   13 30 24.675270 +04 20 32.89659
 2018-Dec-24 04:24 N   13 30 24.725200 +04 20 32.56420
 2018-Dec-24 04:25 N   13 30 24.775148 +04 20 32.23186
 2018-Dec-24 04:26 N   13 30 24.825113 +04 20 31.89958
 2018-Dec-24 04:27 N   13 30 24.875096 +04 20 31.56737
 2018-Dec-24 04:28 N   13 30 24.925097 +04 20 31.23521
 2018-Dec-24 04:29 N   13 30 24.975114 +04 20 30.90312
 2018-Dec-24 04:30 N   13 30 25.025149 +04 20 30.57109
 2018-Dec-24 04:31 N   13 30 25.075200 +04 20 30.23911
 2018-Dec-24 04:32 N   13 30 25.125268 +04 20 29.90720
 2018-Dec-24 04:33 N   13 30 25.175352 +04 20 29.57535
 2018-Dec-24 04:34 N   13 30 25.225452 +04 20 29.24356
 2018-Dec-24 04:35 N   13 30 25.275567 +04 20 28.91183
 2018-Dec-24 04:36 N   13 30 25.325699 +04 20 28.58017
 2018-Dec-24 04:37 N   13 30 25.375845 +04 20 28.24856
 2018-Dec-24 04:38 N   13 30 25.426007 +04 20 27.91701
 2018-Dec-24 04:39 N   13 30 25.476183 +04 20 27.58553
 2018-Dec-24 04:40 N   13 30 25.526374 +04 20 27.25411
 2018-Dec-24 04:41 A   13 30 25.576579 +04 20 26.92275
 2018-Dec-24 04:42 A   13 30 25.626799 +04 20 26.59145
 2018-Dec-24 04:43 A   13 30 25.677032 +04 20 26.26021
 2018-Dec-24 04:44 A   13 30 25.727279 +04 20 25.92904
 2018-Dec-24 04:45 A   13 30 25.777540 +04 20 25.59793
 2018-Dec-24 04:46 A   13 30 25.827813 +04 20 25.26687
 2018-Dec-24 04:47 A   13 30 25.878100 +04 20 24.93588
 2018-Dec-24 04:48 A   13 30 25.928399 +04 20 24.60496
 2018-Dec-24 04:49 A   13 30 25.978711 +04 20 24.27409
 2018-Dec-24 04:50 A   13 30 26.029035 +04 20 23.94329
 2018-Dec-24 04:51 A   13 30 26.079371 +04 20 23.61255
 2018-Dec-24 04:52 A   13 30 26.129719 +04 20 23.28187
 2018-Dec-24 04:53 A   13 30 26.180079 +04 20 22.95125
 2018-Dec-24 04:54 A   13 30 26.230450 +04 20 22.62070
 2018-Dec-24 04:55 A   13 30 26.280831 +04 20 22.29020
 2018-Dec-24 04:56 A   13 30 26.331224 +04 20 21.95977
 2018-Dec-24 04:57 A   13 30 26.381627 +04 20 21.62941
 2018-Dec-24 04:58 A   13 30 26.432041 +04 20 21.29910
 2018-Dec-24 04:59 A   13 30 26.482465 +04 20 20.96886
 2018-Dec-24 05:00 A   13 30 26.532898 +04 20 20.63868
 2018-Dec-24 05:01 A   13 30 26.583342 +04 20 20.30856
 2018-Dec-24 05:02 A   13 30 26.633794 +04 20 19.97851
 2018-Dec-24 05:03 A   13 30 26.684256 +04 20 19.64852
 2018-Dec-24 05:04 A   13 30 26.734727 +04 20 19.31859
 2018-Dec-24 05:05 A   13 30 26.785207 +04 20 18.98873
 2018-Dec-24 05:06 A   13 30 26.835695 +04 20 18.65892
 2018-Dec-24 05:07 A   13 30 26.886191 +04 20 18.32918
 2018-Dec-24 05:08  m  13 30 26.936695 +04 20 17.99951
 2018-Dec-24 05:09  m  13 30 26.987207 +04 20 17.66989
 2018-Dec-24 05:10  m  13 30 27.037726 +04 20 17.34034
 2018-Dec-24 05:11  m  13 30 27.088253 +04 20 17.01085
 2018-Dec-24 05:12  m  13 30 27.138787 +04 20 16.68143
 2018-Dec-24 05:13  m  13 30 27.189327 +04 20 16.35207
 2018-Dec-24 05:14  m  13 30 27.239874 +04 20 16.02277
 2018-Dec-24 05:15  m  13 30 27.290427 +04 20 15.69354
 2018-Dec-24 05:16  m  13 30 27.340987 +04 20 15.36436
 2018-Dec-24 05:17  m  13 30 27.391552 +04 20 15.03526
 2018-Dec-24 05:18  m  13 30 27.442123 +04 20 14.70621
 2018-Dec-24 05:19  m  13 30 27.492699 +04 20 14.37723
 2018-Dec-24 05:20  m  13 30 27.543280 +04 20 14.04831
 2018-Dec-24 05:21  m  13 30 27.593867 +04 20 13.71945
 2018-Dec-24 05:22  m  13 30 27.644457 +04 20 13.39066
 2018-Dec-24 05:23  m  13 30 27.695052 +04 20 13.06193
 2018-Dec-24 05:24  m  13 30 27.745652 +04 20 12.73327
 2018-Dec-24 05:25  m  13 30 27.796255 +04 20 12.40467
 2018-Dec-24 05:26  m  13 30 27.846862 +04 20 12.07613
 2018-Dec-24 05:27  m  13 30 27.897472 +04 20 11.74765
 2018-Dec-24 05:28  m  13 30 27.948085 +04 20 11.41924
 2018-Dec-24 05:29  m  13 30 27.998702 +04 20 11.09090
 2018-Dec-24 05:30  m  13 30 28.049321 +04 20 10.76261
 2018-Dec-24 05:31  m  13 30 28.099942 +04 20 10.43439
 2018-Dec-24 05:32  m  13 30 28.150566 +04 20 10.10623
 2018-Dec-24 05:33  m  13 30 28.201192 +04 20 09.77814
 2018-Dec-24 05:34  m  13 30 28.251819 +04 20 09.45011
 2018-Dec-24 05:35  m  13 30 28.302448 +04 20 09.12214
 2018-Dec-24 05:36  m  13 30 28.353078 +04 20 08.79424
 2018-Dec-24 05:37  m  13 30 28.403710 +04 20 08.46640
 2018-Dec-24 05:38  m  13 30 28.454342 +04 20 08.13862
 2018-Dec-24 05:39  m  13 30 28.504974 +04 20 07.81091
 2018-Dec-24 05:40  m  13 30 28.555607 +04 20 07.48326
 2018-Dec-24 05:41  m  13 30 28.606240 +04 20 07.15568
 2018-Dec-24 05:42  m  13 30 28.656872 +04 20 06.82816
 2018-Dec-24 05:43  m  13 30 28.707504 +04 20 06.50070
 2018-Dec-24 05:44  m  13 30 28.758136 +04 20 06.17330
 2018-Dec-24 05:45  m  13 30 28.808766 +04 20 05.84597
 2018-Dec-24 05:46  m  13 30 28.859396 +04 20 05.51870
 2018-Dec-24 05:47  m  13 30 28.910024 +04 20 05.19150
 2018-Dec-24 05:48  m  13 30 28.960650 +04 20 04.86436
 2018-Dec-24 05:49  m  13 30 29.011275 +04 20 04.53728
 2018-Dec-24 05:50  m  13 30 29.061897 +04 20 04.21027
 2018-Dec-24 05:51  m  13 30 29.112517 +04 20 03.88332
 2018-Dec-24 05:52  m  13 30 29.163134 +04 20 03.55643
 2018-Dec-24 05:53  m  13 30 29.213749 +04 20 03.22961
 2018-Dec-24 05:54  m  13 30 29.264360 +04 20 02.90285
 2018-Dec-24 05:55  m  13 30 29.314968 +04 20 02.57615
 2018-Dec-24 05:56  m  13 30 29.365573 +04 20 02.24952
 2018-Dec-24 05:57  m  13 30 29.416174 +04 20 01.92295
 2018-Dec-24 05:58  m  13 30 29.466770 +04 20 01.59644
 2018-Dec-24 05:59  m  13 30 29.517363 +04 20 01.27000
 2018-Dec-24 06:00  m  13 30 29.567950 +04 20 00.94362
 2018-Dec-24 06:01  m  13 30 29.618533 +04 20 00.61731
